[{"OBJECT_NAME":"YAOGAN-36 03C","OBJECT_ID":"2022-160E","EPOCH":"2026-03-09T20:06:06.577632","MEAN_MOTION":15.22991504,"ECCENTRICITY":0.00114517,"INCLINATION":35.0077,"RA_OF_ASC_NODE":244.2786,"ARG_OF_PERICENTER":217.8015,"MEAN_ANOMALY":142.1896,"EPHEMERIS_TYPE":0,"CLASSIFICATION_TYPE":"U","NORAD_CAT_ID":54376,"ELEMENT_SET_NO":999,"REV_AT_EPOCH":18289,"BSTAR":-5.118835e-6,"MEAN_MOTION_DOT":-1.61e-6,"MEAN_MOTION_DDOT":0},{"OBJECT_NAME":"OBJECT W","OBJECT_ID":"2023-081W","EPOCH":"2026-03-09T22:48:59.769792","MEAN_MOTION":15.23580425,"ECCENTRICITY":0.00107253,"INCLINATION":97.3003,"RA_OF_ASC_NODE":135.1211,"ARG_OF_PERICENTER":10.0781,"MEAN_ANOMALY":350.0669,"EPHEMERIS_TYPE":0,"CLASSIFICATION_TYPE":"U","NORAD_CAT_ID":56866,"ELEMENT_SET_NO":999,"REV_AT_EPOCH":15291,"BSTAR":0.0003543564,"MEAN_MOTION_DOT":8.423e-5,"MEAN_MOTION_DDOT":0}]
